MALLIGYONG-1            
1 58400U 23179A   24033.14854060  .00005905  00000+0  25937-3 0  9996
2 58400  97.4227 281.9791 0016642  29.3343 330.8823 15.22179312 11035
